{"fetched_at":"2026-03-30T06:02:59Z","count":15439,"tles":[{"name":"KUIPER-00117","line1":"1 65949U 25228C   26087.80903428  .00004146  00000+0  57241-3 0  9995","line2":"2 65949  51.8974 273.5491 0000819  93.0114 267.0942 14.79944041 26096","category":"Other"}]}